{"fetched_at":"2026-07-22T07:09:34.348Z","source":"https://celestrak.org/NORAD/elements/gp.php?NAME=BRO&FORMAT=JSON","constellation":"unseenlabs","records":[{"OBJECT_NAME":"BRO-5","OBJECT_ID":"2022-002CF","EPOCH":"2026-07-21T15:12:36.482976","CLASSIFICATION_TYPE":"U","MEAN_MOTION":15.49070309,"ECCENTRICITY":0.00060735,"INCLINATION":97.2973,"RA_OF_ASC_NODE":276.6499,"ARG_OF_PERICENTER":179.4638,"MEAN_ANOMALY":180.6621,"EPHEMERIS_TYPE":0,"NORAD_CAT_ID":51061,"ELEMENT_SET_NO":999,"REV_AT_EPOCH":25158,"BSTAR":0.00023803284,"MEAN_MOTION_DOT":0.00012831,"MEAN_MOTION_DDOT":0},{"OBJECT_NAME":"BRO-6","OBJECT_ID":"2022-047AE","EPOCH":"2026-07-21T13:44:38.356224","CLASSIFICATION_TYPE":"U","MEAN_MOTION":15.52929005,"ECCENTRICITY":0.00029769,"INCLINATION":97.338,"RA_OF_ASC_NODE":294.3469,"ARG_OF_PERICENTER":274.0163,"MEAN_ANOMALY":86.075,"EPHEMERIS_TYPE":0,"NORAD_CAT_ID":52422,"ELEMENT_SET_NO":999,"REV_AT_EPOCH":23648,"BSTAR":0.00067871854,"MEAN_MOTION_DOT":0.00042281,"MEAN_MOTION_DDOT":0},{"OBJECT_NAME":"BRO-8","OBJECT_ID":"2023-001C","EPOCH":"2026-07-21T15:34:52.508640","CLASSIFICATION_TYPE":"U","MEAN_MOTION":15.51035568,"ECCENTRICITY":0.00041469,"INCLINATION":97.3179,"RA_OF_ASC_NODE":268.376,"ARG_OF_PERICENTER":14.8316,"MEAN_ANOMALY":345.3058,"EPHEMERIS_TYPE":0,"NORAD_CAT_ID":55011,"ELEMENT_SET_NO":999,"REV_AT_EPOCH":19754,"BSTAR":0.00053984046,"MEAN_MOTION_DOT":0.00031372,"MEAN_MOTION_DDOT":0},{"OBJECT_NAME":"BRO-11","OBJECT_ID":"2023-174J","EPOCH":"2026-07-21T15:20:16.781568","CLASSIFICATION_TYPE":"U","MEAN_MOTION":15.27628632,"ECCENTRICITY":0.00119947,"INCLINATION":97.3891,"RA_OF_ASC_NODE":279.1708,"ARG_OF_PERICENTER":88.0928,"MEAN_ANOMALY":272.1685,"EPHEMERIS_TYPE":0,"NORAD_CAT_ID":58264,"ELEMENT_SET_NO":999,"REV_AT_EPOCH":15001,"BSTAR":0.00014221832,"MEAN_MOTION_DOT":0.00003774,"MEAN_MOTION_DDOT":0},{"OBJECT_NAME":"BRO-13","OBJECT_ID":"2024-043K","EPOCH":"2026-07-21T14:11:19.967712","CLASSIFICATION_TYPE":"U","MEAN_MOTION":14.96666288,"ECCENTRICITY":0.00074707,"INCLINATION":97.8539,"RA_OF_ASC_NODE":333.7274,"ARG_OF_PERICENTER":237.6861,"MEAN_ANOMALY":122.3637,"EPHEMERIS_TYPE":0,"NORAD_CAT_ID":59107,"ELEMENT_SET_NO":999,"REV_AT_EPOCH":12976,"BSTAR":0.00010508478,"MEAN_MOTION_DOT":0.00001139,"MEAN_MOTION_DDOT":0},{"OBJECT_NAME":"BRO-12","OBJECT_ID":"2024-043L","EPOCH":"2026-07-21T13:57:41.064192","CLASSIFICATION_TYPE":"U","MEAN_MOTION":14.96907145,"ECCENTRICITY":0.00070158,"INCLINATION":97.8522,"RA_OF_ASC_NODE":333.8881,"ARG_OF_PERICENTER":229.7553,"MEAN_ANOMALY":130.3055,"EPHEMERIS_TYPE":0,"NORAD_CAT_ID":59108,"ELEMENT_SET_NO":999,"REV_AT_EPOCH":12978,"BSTAR":0.00013229904,"MEAN_MOTION_DOT":0.00001459,"MEAN_MOTION_DDOT":0},{"OBJECT_NAME":"BRO-14","OBJECT_ID":"2024-149CM","EPOCH":"2026-07-21T15:17:07.333152","CLASSIFICATION_TYPE":"U","MEAN_MOTION":14.96249737,"ECCENTRICITY":0.00062262,"INCLINATION":97.6862,"RA_OF_ASC_NODE":277.7951,"ARG_OF_PERICENTER":357.3377,"MEAN_ANOMALY":2.781,"EPHEMERIS_TYPE":0,"NORAD_CAT_ID":60551,"ELEMENT_SET_NO":999,"REV_AT_EPOCH":10514,"BSTAR":0.000090163059,"MEAN_MOTION_DOT":0.00000961,"MEAN_MOTION_DDOT":0},{"OBJECT_NAME":"BRO-15","OBJECT_ID":"2024-149CP","EPOCH":"2026-07-21T03:38:11.683968","CLASSIFICATION_TYPE":"U","MEAN_MOTION":14.96228757,"ECCENTRICITY":0.00071168,"INCLINATION":97.6789,"RA_OF_ASC_NODE":276.8884,"ARG_OF_PERICENTER":345.2617,"MEAN_ANOMALY":14.8396,"EPHEMERIS_TYPE":0,"NORAD_CAT_ID":60553,"ELEMENT_SET_NO":999,"REV_AT_EPOCH":10508,"BSTAR":0.000086466371,"MEAN_MOTION_DOT":0.00000918,"MEAN_MOTION_DDOT":0},{"OBJECT_NAME":"BRO-16","OBJECT_ID":"2025-009AX","EPOCH":"2026-07-21T05:17:04.855776","CLASSIFICATION_TYPE":"U","MEAN_MOTION":15.24155586,"ECCENTRICITY":0.00025737,"INCLINATION":97.4048,"RA_OF_ASC_NODE":282.2879,"ARG_OF_PERICENTER":141.5734,"MEAN_ANOMALY":218.5687,"EPHEMERIS_TYPE":0,"NORAD_CAT_ID":62654,"ELEMENT_SET_NO":999,"REV_AT_EPOCH":8398,"BSTAR":0.00010328294,"MEAN_MOTION_DOT":0.00002442,"MEAN_MOTION_DDOT":0},{"OBJECT_NAME":"BRO-18","OBJECT_ID":"2025-135Y","EPOCH":"2026-07-21T13:38:01.076928","CLASSIFICATION_TYPE":"U","MEAN_MOTION":15.2220411,"ECCENTRICITY":0.00026458,"INCLINATION":97.4653,"RA_OF_ASC_NODE":317.3397,"ARG_OF_PERICENTER":108.0065,"MEAN_ANOMALY":252.146,"EPHEMERIS_TYPE":0,"NORAD_CAT_ID":64550,"ELEMENT_SET_NO":999,"REV_AT_EPOCH":6010,"BSTAR":0.0001443177,"MEAN_MOTION_DOT":0.00003244,"MEAN_MOTION_DDOT":0},{"OBJECT_NAME":"BRO-17","OBJECT_ID":"2025-276G","EPOCH":"2026-07-21T10:59:01.136256","CLASSIFICATION_TYPE":"U","MEAN_MOTION":15.18182654,"ECCENTRICITY":0.00054231,"INCLINATION":97.4177,"RA_OF_ASC_NODE":274.9035,"ARG_OF_PERICENTER":231.712,"MEAN_ANOMALY":128.3626,"EPHEMERIS_TYPE":0,"NORAD_CAT_ID":66672,"ELEMENT_SET_NO":999,"REV_AT_EPOCH":3559,"BSTAR":0.00011031438,"MEAN_MOTION_DOT":0.00002188,"MEAN_MOTION_DDOT":0},{"OBJECT_NAME":"BRO-20","OBJECT_ID":"2025-276J","EPOCH":"2026-07-21T10:23:29.485824","CLASSIFICATION_TYPE":"U","MEAN_MOTION":15.18348786,"ECCENTRICITY":0.00049961,"INCLINATION":97.4156,"RA_OF_ASC_NODE":274.8673,"ARG_OF_PERICENTER":234.9509,"MEAN_ANOMALY":125.1257,"EPHEMERIS_TYPE":0,"NORAD_CAT_ID":66674,"ELEMENT_SET_NO":999,"REV_AT_EPOCH":3559,"BSTAR":0.00010047486,"MEAN_MOTION_DOT":0.00001996,"MEAN_MOTION_DDOT":0},{"OBJECT_NAME":"BRO-19","OBJECT_ID":"2026-067G","EPOCH":"2026-07-21T15:14:59.061984","CLASSIFICATION_TYPE":"U","MEAN_MOTION":15.19019801,"ECCENTRICITY":0.00027449,"INCLINATION":97.4495,"RA_OF_ASC_NODE":160.6057,"ARG_OF_PERICENTER":99.8069,"MEAN_ANOMALY":260.3475,"EPHEMERIS_TYPE":0,"NORAD_CAT_ID":68422,"ELEMENT_SET_NO":999,"REV_AT_EPOCH":1717,"BSTAR":0.00016411269,"MEAN_MOTION_DOT":0.00003368,"MEAN_MOTION_DDOT":0},{"OBJECT_NAME":"BRO-21","OBJECT_ID":"2026-100AD","EPOCH":"2026-07-21T15:37:56.601984","CLASSIFICATION_TYPE":"U","MEAN_MOTION":15.21655074,"ECCENTRICITY":0.00059769,"INCLINATION":97.3994,"RA_OF_ASC_NODE":99.9793,"ARG_OF_PERICENTER":302.2711,"MEAN_ANOMALY":57.7945,"EPHEMERIS_TYPE":0,"NORAD_CAT_ID":69007,"ELEMENT_SET_NO":999,"REV_AT_EPOCH":1204,"BSTAR":0.00020180234,"MEAN_MOTION_DOT":0.00004494,"MEAN_MOTION_DDOT":0},{"OBJECT_NAME":"BRO-22","OBJECT_ID":"2026-132C","EPOCH":"2026-07-21T13:53:54.518208","CLASSIFICATION_TYPE":"U","MEAN_MOTION":14.99828753,"ECCENTRICITY":0.00173147,"INCLINATION":97.6823,"RA_OF_ASC_NODE":265.8168,"ARG_OF_PERICENTER":157.9013,"MEAN_ANOMALY":202.2961,"EPHEMERIS_TYPE":0,"NORAD_CAT_ID":69504,"ELEMENT_SET_NO":999,"REV_AT_EPOCH":593,"BSTAR":0.00015788551,"MEAN_MOTION_DOT":0.000019,"MEAN_MOTION_DDOT":0}]}
