{"epoch":1784710044,"count":18256,"objects":[{"id":"51061","name":"BRO-5","type":"PAYLOAD","l1":"1 51061U 22002CF  26202.63375559  .00012831  00000-0  23803-3 0  9998","l2":"2 51061  97.2973 276.6499 0006074 179.4638 180.6621 15.49070309251583"},{"id":"52422","name":"BRO-6","type":"PAYLOAD","l1":"1 52422U 22047AE  26202.57266616  .00042281  00000-0  67872-3 0  9991","l2":"2 52422  97.3380 294.3469 0002977 274.0163  86.0750 15.52929005236489"},{"id":"55011","name":"BRO-8","type":"PAYLOAD","l1":"1 55011U 23001C   26202.64921885  .00031372  00000-0  53984-3 0  9991","l2":"2 55011  97.3179 268.3760 0004147  14.8316 345.3058 15.51035568197544"},{"id":"58264","name":"BRO-11","type":"PAYLOAD","l1":"1 58264U 23174J   26202.63908312  .00003774  00000-0  14222-3 0  9991","l2":"2 58264  97.3891 279.1708 0011995  88.0928 272.1685 15.27628632150018"},{"id":"59107","name":"BRO-13","type":"PAYLOAD","l1":"1 59107U 24043K   26202.59120333  .00001139  00000-0  10508-3 0  9994","l2":"2 59107  97.8539 333.7274 0007471 237.6861 122.3637 14.96666288129761"},{"id":"59108","name":"BRO-12","type":"PAYLOAD","l1":"1 59108U 24043L   26202.58172528  .00001459  00000-0  13230-3 0  9997","l2":"2 59108  97.8522 333.8881 0007016 229.7553 130.3055 14.96907145129789"},{"id":"60551","name":"BRO-14","type":"PAYLOAD","l1":"1 60551U 24149CM  26202.63689043  .00000961  00000-0  90163-4 0  9997","l2":"2 60551  97.6862 277.7951 0006226 357.3377   2.7810 14.96249737105147"},{"id":"60553","name":"BRO-15","type":"PAYLOAD","l1":"1 60553U 24149CP  26202.15152412  .00000918  00000-0  86466-4 0  9994","l2":"2 60553  97.6789 276.8884 0007117 345.2617  14.8396 14.96228757105080"},{"id":"62654","name":"BRO-16","type":"PAYLOAD","l1":"1 62654U 25009AX  26202.22019509  .00002442  00000-0  10328-3 0  9998","l2":"2 62654  97.4048 282.2879 0002574 141.5734 218.5687 15.24155586 83985"},{"id":"64550","name":"BRO-18","type":"PAYLOAD","l1":"1 64550U 25135Y   26202.56806802  .00003244  00000-0  14432-3 0  9993","l2":"2 64550  97.4653 317.3397 0002646 108.0065 252.1460 15.22204110 60102"},{"id":"66672","name":"BRO-17","type":"PAYLOAD","l1":"1 66672U 25276G   26202.45765204  .00002188  00000-0  11031-3 0  9992","l2":"2 66672  97.4177 274.9035 0005423 231.7120 128.3626 15.18182654 35595"},{"id":"66674","name":"BRO-20","type":"PAYLOAD","l1":"1 66674U 25276J   26202.43298016  .00001996  00000-0  10047-3 0  9996","l2":"2 66674  97.4156 274.8673 0004996 234.9509 125.1257 15.18348786 35596"},{"id":"68422","name":"BRO-19","type":"PAYLOAD","l1":"1 68422U 26067G   26202.63540581  .00003368  00000-0  16411-3 0  9993","l2":"2 68422  97.4495 160.6057 0002745  99.8069 260.3475 15.19019801 17174"},{"id":"69007","name":"BRO-21","type":"PAYLOAD","l1":"1 69007U 26100AD  26202.65134956  .00004494  00000-0  20180-3 0  9997","l2":"2 69007  97.3994  99.9793 0005977 302.2711  57.7945 15.21655074 12045"},{"id":"69504","name":"BRO-22","type":"PAYLOAD","l1":"1 69504U 26132C   26202.57910322  .00001900  00000-0  15789-3 0  9992","l2":"2 69504  97.6823 265.8168 0017315 157.9013 202.2961 14.99828753  5935"}]}